256P/LINEAR,e,27.6289,81.4129,124.1546,4.631884,0.0988707,0.41956367,103.6332,01/30.0/2016,2000,g 14.0,2.0
# From MPC 88332
257P/Catalina,e,20.2376,207.8052,117.9537,3.754788,0.1354647,0.43161192,131.4428,01/30.0/2016,2000,g 11.5,4.0
# From MPC 79655
258P/PANSTARRS,e,6.7458,126.2984,25.9896,4.404561,0.1066228,0.21043677,189.3347,01/30.0/2016,2000,g 13.0,4.0
# From MPC 79655
259P/Garradd,e,15.8704,51.5729,257.2505,2.734077,0.2180157,0.33821602,239.7875,01/30.0/2016,2000,g 15.5,4.0
# From MPC 82322
260P/McNaught,e,15.8056,351.8663,15.3844,3.667279,0.1403422,0.59691645,173.1223,01/30.0/2016,2000,g 13.5,4.0
# From MPC 81861
261P/Larson,e,6.1570,296.7964,59.7683,3.546714,0.1475587,0.41047482,176.9903,01/30.0/2016,2000,g 14.0,4.0
# From MPC 82322
262P/McNaught-Russell,e,29.0940,217.9643,171.1224,6.900923,0.0543680,0.81465869,62.6581,01/30.0/2016,2000,g 13.5,4.0
# From MPC 82323
263P/Gibbs,e,11.5320,105.8534,34.5598,3.061910,0.1839566,0.58761155,248.0189,01/30.0/2016,2000,g 18.0,4.0
# From MPC 81473
264P/Larsen,e,25.1413,220.9015,346.4414,3.898608,0.1280382,0.37339198,195.7817,01/30.0/2016,2000,g 13.0,4.0
# From MPC 79870
265P/LINEAR,e,14.7085,344.7108,32.6128,4.231823,0.1132173,0.64756665,150.4943,01/30.0/2016,2000,g 14.5,4.0
# From MPC 90771
266P/Christensen,e,3.4281,5.0086,98.0174,3.530549,0.1485733,0.34011501,131.0131,01/30.0/2016,2000,g 12.5,4.0
# From MPC 81862
267P/LONEOS,e,5.4921,237.3005,104.5084,3.249137,0.1682876,0.61137336,208.4962,01/30.0/2016,2000,g 19.5,4.0
# From MPC 92277
268P/Bernardi,e,16.0968,127.6413,0.3553,4.565146,0.1010467,0.47005106,28.0812,01/30.0/2016,2000,g 14.0,4.0
# From MPC 93589
269P/Jedicke,e,6.5798,246.6296,224.8267,7.407002,0.0488923,0.45087131,21.7401,01/30.0/2016,2000,g 10.0,4.0
# From MPC 88332
270P/Gehrels,e,2.8683,223.4297,210.6701,6.745410,0.0562589,0.47180957,53.3230,01/30.0/2016,2000,g  8.0,4.0
# From MPC 92277
271P/van Houten-Lemmon,e,6.8572,9.2955,36.5261,7.058024,0.0525629,0.39477618,48.9182,01/30.0/2016,2000,g 11.0,4.0
# From MPC 81862
272P/NEAT,e,18.0985,109.5022,28.0443,4.446133,0.1051309,0.45573450,112.1167,01/30.0/2016,2000,g 16.0,2.0
# From MPC 82723
273P/Pons-Gambart,e,136.4135,320.4207,20.1675,31.78967,0.0054989,0.97444345,0.0000,12/18.3756/2012,2000,g 11.5,4.0
# From MPC 88332
274P/Tombaugh-Tenagra,e,15.8312,81.3674,38.5988,4.364431,0.1080967,0.43965716,115.7112,01/30.0/2016,2000,g 13.0,4.0
# From MPC 81862
275P/Hermann,e,21.3502,348.7133,174.0911,5.761711,0.0712651,0.71450278,80.4147,01/30.0/2016,2000,g 15.0,4.0
# From MPC 84935
276P/Vorobjov,e,14.5341,212.2528,205.0228,5.354259,0.0795527,0.27503459,89.6280,01/30.0/2016,2000,g 11.5,4.0
# From MPC 82323
277P/LINEAR,e,16.7478,276.3541,152.1954,3.857661,0.1300823,0.50394172,126.0183,01/30.0/2016,2000,g 14.0,4.0
# From MPC 83523
278P/McNaught,e,6.6842,15.4949,237.9024,3.698828,0.1385504,0.43367842,126.1390,01/30.0/2016,2000,g 14.0,4.0
# From MPC 82723
279P/La Sagra,e,5.0465,346.2497,5.8920,3.580427,0.1454795,0.39695758,335.7645,01/30.0/2016,2000,g 14.0,4.0
# From MPC 89013
280P/Larsen,e,11.7721,131.5034,104.5681,4.527589,0.1023066,0.41807648,79.7866,01/30.0/2016,2000,g 12.5,4.0
# From MPC 83145
281P/MOSS,e,4.7226,87.1819,27.2402,4.861092,0.0919609,0.17251727,124.3440,01/30.0/2016,2000,g 11.0,4.0
# From unp
282P/,e,5.8109,9.3593,217.0198,4.250680,0.1124648,0.18891693,124.8387,01/30.0/2016,2000,g 13.5,2.0
# From MPC 84027
283P/Spacewatch,e,14.4707,161.2030,22.1852,4.135915,0.1171782,0.48622109,120.3828,01/30.0/2016,2000,g 16.0,2.0
# From MPC 93589
284P/McNaught,e,11.8631,144.2935,202.8477,3.671887,0.1400780,0.37640914,72.0883,01/30.0/2016,2000,g 13.0,4.0
# From MPC 85339
285P/LINEAR,e,24.9557,185.5486,178.4470,4.504588,0.1030912,0.62150553,97.6663,01/30.0/2016,2000,g 15.0,4.0
# From MPC 90771
286P/Christensen,e,17.0242,283.9426,24.7828,4.118841,0.1179075,0.42340279,88.9249,01/30.0/2016,2000,g 14.0,4.0
# From MPC 96868
287P/Christensen,e,16.3009,139.0539,189.0185,4.177034,0.1154522,0.26891843,45.9401,01/30.0/2016,2000,g 13.5,4.0
# From unp
288P/,e,3.2402,83.1932,281.1010,3.048701,0.1851535,0.20102264,307.5227,01/30.0/2016,2000,g 16.0,2.0
# From MPC 84322
289P/Blanpain,e,5.9001,68.9321,9.8354,3.046133,0.1853876,0.68458445,96.3766,01/30.0/2016,2000,g 10.0,4.0
# From MPC 95214
290P/Jager,e,19.0562,303.4211,180.7426,6.129521,0.0649478,0.64799705,44.7250,01/30.0/2016,2000,g 10.5,4.0
# From MPC 89314
291P/NEAT,e,5.9709,240.1183,176.2487,4.541025,0.1018529,0.43437101,79.0507,01/30.0/2016,2000,g 13.0,4.0
# From MPC 93589
292P/Li,e,24.2510,91.4481,319.3448,6.135572,0.0648517,0.58958798,46.9608,01/30.0/2016,2000,g 12.5,4.0
# From MPC 92278
293P/Spacewatch,e,9.0625,78.4332,41.1811,3.637881,0.1420467,0.41910664,106.5097,01/30.0/2016,2000,g 14.5,4.0
# From MPC 89013
294P/LINEAR,e,18.2239,312.6843,235.4034,3.205657,0.1717230,0.59455520,119.7946,01/30.0/2016,2000,g 15.5,4.0
# From MPC 93589
295P/LINEAR,e,21.1276,7.6405,73.2557,5.330396,0.0800875,0.61633878,50.1045,01/30.0/2016,2000,g 12.0,4.0
# From MPC 92278
296P/Garradd,e,25.2079,263.6547,349.9982,3.501412,0.1504316,0.47756771,105.2534,01/30.0/2016,2000,g 14.0,4.0
# From MPC 90772
297P/Beshore,e,10.3237,97.7025,132.2255,3.445581,0.1541028,0.31911691,79.8101,01/30.0/2016,2000,g 15.0,4.0
# From MPC 87919
298P/Christensen,e,7.8722,52.8523,100.6977,3.589917,0.1449030,0.38823797,116.6577,01/30.0/2016,2000,g 15.0,4.0
# From MPC 95735
299P/Catalina-PANSTARRS,e,10.4782,271.6812,323.5408,4.376063,0.1076660,0.28254372,36.6649,01/30.0/2016,2000,g 11.5,4.0
# From MPC 89314
300P/Catalina,e,5.6837,95.7795,222.8327,2.696451,0.2225949,0.69269453,135.8836,01/30.0/2016,2000,g 16.0,4.0
# From MPC 89014
301P/LINEAR-NEAT,e,10.3669,351.1556,193.5941,5.725495,0.0719423,0.58740473,37.0455,01/30.0/2016,2000,g 13.0,4.0
# From MPC 88698
302P/Lemmon-PANSTARRS,e,6.0312,121.7827,208.2822,4.279718,0.1113221,0.22831721,349.8059,01/30.0/2016,2000,g 12.5,4.0
# From MPC 92278
303P/NEAT,e,7.0037,348.0203,356.9773,5.061478,0.0865542,0.50856100,40.9907,01/30.0/2016,2000,g 13.5,4.0
# From MPC 92987
304P/Ory,e,2.7568,60.4014,330.0037,3.246443,0.1684971,0.57567810,88.0456,01/30.0/2016,2000,g 16.5,4.0
# From MPC 93589
305P/Skiff,e,11.5275,241.7398,145.3698,4.627997,0.0989953,0.69637946,43.1648,01/30.0/2016,2000,g 18.0,4.0
# From MPC 92278
306P/LINEAR,e,8.3484,341.4598,0.8587,3.112977,0.1794487,0.59638100,99.4893,01/30.0/2016,2000,g 19.0,4.0
# From MPC 91619
307P/LINEAR,e,4.4262,158.0914,222.2067,5.801813,0.0705275,0.67417040,28.6136,01/30.0/2016,2000,g 15.0,4.0
# From MPC 96869
308P/Lagerkvist-Carsenty,e,4.8481,63.1296,334.0519,6.633257,0.0576918,0.36294826,15.4454,01/30.0/2016,2000,g 13.0,2.0
# From MPC 94284
309P/LINEAR,e,17.6782,11.3421,51.0252,4.447272,0.1050905,0.60877037,36.4991,01/30.0/2016,2000,g 15.0,4.0
# From MPC 92987
310P/Hill,e,13.1858,8.9642,31.4416,4.154902,0.1163759,0.42619834,33.3209,01/30.0/2016,2000,g 13.5,4.0
# From MPC 95736
311P/PANSTARRS,e,4.9671,279.2683,144.0835,2.188402,0.3044482,0.11581311,199.2891,01/30.0/2016,2000,g 17.0,4.0
# From MPC 92279
312P/NEAT,e,19.8433,144.9207,207.5625,3.452524,0.1536382,0.43270264,99.4892,01/30.0/2016,2000,g 16.0,4.0
# From MPC 92987
313P/Gibbs,e,10.9654,106.4956,253.5542,3.154763,0.1758952,0.24157051,91.3690,01/30.0/2016,2000,g 15.0,4.0
# From MPC 97499
314P/Montani,e,3.9784,267.7038,213.7056,7.261845,0.0503656,0.41695560,347.3282,01/30.0/2016,2000,g  9.5,4.0
# From MPC 97499
315P/LONEOS,e,17.9142,69.5528,67.1682,5.013792,0.0877919,0.51720158,332.6292,01/30.0/2016,2000,g 11.0,4.0
# From MPC 92279
316P/LONEOS-Christensen,e,9.8988,246.8678,191.8751,4.306169,0.1102979,0.16837655,10.2370,01/30.0/2016,2000,g 13.5,4.0
# From MPC 95736
317P/WISE,e,11.9387,275.5650,334.7877,2.967150,0.1928390,0.56988330,32.0525,01/30.0/2016,2000,g 17.5,4.0
# From MPC 97499
318P/McNaught-Hartley,e,17.8690,35.7238,313.2194,7.513990,0.0478518,0.67417877,4.7634,01/30.0/2016,2000,g  8.5,6.0
# From MPC 97499
319P/Catalina-McNaught,e,15.0740,111.3611,203.6584,3.574202,0.1458598,0.66520020,30.9595,01/30.0/2016,2000,g 15.0,4.0
# From MPC 95736
320P/McNaught,e,4.8990,295.9389,0.7544,3.097854,0.1807643,0.68462983,31.7579,01/30.0/2016,2000,g 20.5,4.0
# From MPC 94284
321P/SOHO,e,20.2029,165.1773,172.5563,2.422769,0.2613581,0.98118299,0.0000,04/10.3791/2016,2000,g 20.0,4.0
# From MPC 94285
322P/SOHO,e,12.5797,359.4595,49.1125,2.516493,0.2468940,0.97869688,0.0000,09/04.0623/2015,2000,g 19.0,4.0
# From MPC 94285
323P/SOHO,e,5.4198,324.4580,352.9106,2.584640,0.2371942,0.98474995,0.0000,11/23.8231/2016,2000,g 20.0,4.0
# From MPC 95214
324P/La Sagra,e,21.4161,270.6480,58.5468,3.095936,0.1809323,0.15378365,11.0631,01/30.0/2016,2000,g 13.0,4.0
# From MPC 95736
325P/Yang-Gao,e,16.6916,257.6231,343.5704,3.522700,0.1490701,0.59375328,25.0223,01/30.0/2016,2000,g 14.0,4.0
# From MPC 96869
326P/Hill,e,2.4704,99.8146,278.8139,4.070908,0.1199961,0.31721473,11.9284,01/30.0/2016,2000,g 13.5,4.0
# From MPC 97499
327P/Van Ness,e,36.2147,173.9627,185.0925,3.566644,0.1463236,0.56252003,7.1077,01/30.0/2016,2000,g 16.0,4.0
# From MPC 97499
328P/LONEOS-Tucker,e,17.6491,341.6009,30.6093,4.203391,0.1143680,0.55118475,4.2189,01/30.0/2016,2000,g 14.5,4.0
# From MPC 97499
329P/LINEAR-Catalina,e,21.4617,88.7753,342.3814,5.181753,0.0835582,0.67972904,4.6328,01/30.0/2016,2000,g 13.5,4.0
# From MPC 97499
330P/Catalina,e,15.5646,294.3762,186.9290,6.571520,0.0585067,0.55061762,347.5437,01/30.0/2016,2000,g 12.0,4.0
